STARLINK-36621          
1 67561U 26016A   26053.73417227  .00198189  00000+0  12971-2 0  9996
2 67561  97.2827 113.4007 0002176  87.4613 272.6901 15.75222856  4445
STARLINK-36398          
1 67562U 26016B   26053.67804943  .00242025  00000+0  15789-2 0  9994
2 67562  97.2841 113.3218 0001026 131.6094 228.5259 15.75175489  4437
STARLINK-36403          
1 67563U 26016C   26053.91668981  .00005642  00000+0  38721-4 0  9997
2 67563  97.2843 113.6912 0001428  99.5529  80.8934 15.75158244  5772
STARLINK-36593          
1 67564U 26016D   26053.91668981 -.00151048  00000+0 -10277-2 0  9996
2 67564  97.2848 113.6758 0001406  70.3187  76.1214 15.75236746  5615
STARLINK-35725          
1 67565U 26016E   26053.91239805  .00307691  00000+0  19801-2 0  9993
2 67565  97.2847 113.6173 0001465  67.7050 292.4371 15.75309417  4476
STARLINK-36394          
1 67566U 26016F   26053.91417156  .00260222  00000+0  16856-2 0  9996
2 67566  97.2863 113.6125 0003087  60.8226 299.3348 15.75287869  4479
STARLINK-36352          
1 67567U 26016G   26053.91668981 -.00105568  00000+0 -71462-3 0  9999
2 67567  97.2844 113.7022 0000577  76.2350 138.1692 15.75225622  5670
STARLINK-36435          
1 67568U 26016H   26053.61816991  .00531051  00000+0  26160-2 0  9995
2 67568  97.2845 113.4031 0004047 339.2977  20.8126 15.80747366  4434
STARLINK-36575          
1 67569U 26016J   26053.68015396  .00245342  00000+0  12364-2 0  9999
2 67569  97.2840 113.4751 0001530  77.2386 282.9054 15.80983492  4440
STARLINK-36562          
1 67570U 26016K   26053.91668981  .00005362  00000+0  36867-4 0  9993
2 67570  97.2840 113.7089 0001319  83.3485 141.1014 15.75144075  5670
STARLINK-36578          
1 67571U 26016L   26053.91628785  .00263337  00000+0  17053-2 0  9994
2 67571  97.2857 113.6109 0003009  75.1962 284.9636 15.75285923  4479
STARLINK-36350          
1 67572U 26016M   26053.90852742  .00115682  00000+0  76563-3 0  9997
2 67572  97.2857 113.6197 0001798  74.6888 285.4576 15.75200204  4479
