CCSDS_OMM_VERS = 2.0
CREATION_DATE  = 
ORIGINATOR     = 

OBJECT_NAME    = STARLINK-36621
OBJECT_ID      = 2026-016A
CENTER_NAME    = EARTH
REF_FRAME      = TEME
TIME_SYSTEM    = UTC
MEAN_ELEMENT_THEORY = SGP/SGP4

EPOCH          = 2026-02-22T17:37:12.484128
MEAN_MOTION    = 15.75222856
ECCENTRICITY   = .0002176
INCLINATION    = 97.2827
RA_OF_ASC_NODE = 113.4007
ARG_OF_PERICENTER = 87.4613
MEAN_ANOMALY   = 272.6901

EPHEMERIS_TYPE = 0
CLASSIFICATION_TYPE = U
NORAD_CAT_ID   = 67561
ELEMENT_SET_NO = 999
REV_AT_EPOCH   = 444
BSTAR          = .12971281E-2
MEAN_MOTION_DOT = .198189E-2
MEAN_MOTION_DDOT = 0

CCSDS_OMM_VERS = 2.0
CREATION_DATE  = 
ORIGINATOR     = 

OBJECT_NAME    = STARLINK-36398
OBJECT_ID      = 2026-016B
CENTER_NAME    = EARTH
REF_FRAME      = TEME
TIME_SYSTEM    = UTC
MEAN_ELEMENT_THEORY = SGP/SGP4

EPOCH          = 2026-02-22T16:16:23.470752
MEAN_MOTION    = 15.75175489
ECCENTRICITY   = .00010269
INCLINATION    = 97.2841
RA_OF_ASC_NODE = 113.3218
ARG_OF_PERICENTER = 131.6094
MEAN_ANOMALY   = 228.5259

EPHEMERIS_TYPE = 0
CLASSIFICATION_TYPE = U
NORAD_CAT_ID   = 67562
ELEMENT_SET_NO = 999
REV_AT_EPOCH   = 443
BSTAR          = .1578936E-2
MEAN_MOTION_DOT = .242025E-2
MEAN_MOTION_DDOT = 0

CCSDS_OMM_VERS = 2.0
CREATION_DATE  = 
ORIGINATOR     = 

OBJECT_NAME    = STARLINK-36403
OBJECT_ID      = 2026-016C
CENTER_NAME    = EARTH
REF_FRAME      = TEME
TIME_SYSTEM    = UTC
MEAN_ELEMENT_THEORY = SGP/SGP4

EPOCH          = 2026-02-22T22:00:01.999584
MEAN_MOTION    = 15.75158244
ECCENTRICITY   = .00014287
INCLINATION    = 97.2843
RA_OF_ASC_NODE = 113.6912
ARG_OF_PERICENTER = 99.5529
MEAN_ANOMALY   = 80.8934

EPHEMERIS_TYPE = 0
CLASSIFICATION_TYPE = U
NORAD_CAT_ID   = 67563
ELEMENT_SET_NO = 999
REV_AT_EPOCH   = 577
BSTAR          = .38721408E-4
MEAN_MOTION_DOT = .5642E-4
MEAN_MOTION_DDOT = 0

CCSDS_OMM_VERS = 2.0
CREATION_DATE  = 
ORIGINATOR     = 

OBJECT_NAME    = STARLINK-36593
OBJECT_ID      = 2026-016D
CENTER_NAME    = EARTH
REF_FRAME      = TEME
TIME_SYSTEM    = UTC
MEAN_ELEMENT_THEORY = SGP/SGP4

EPOCH          = 2026-02-22T22:00:01.999584
MEAN_MOTION    = 15.75236746
ECCENTRICITY   = .00014069
INCLINATION    = 97.2848
RA_OF_ASC_NODE = 113.6758
ARG_OF_PERICENTER = 70.3187
MEAN_ANOMALY   = 76.1214

EPHEMERIS_TYPE = 0
CLASSIFICATION_TYPE = U
NORAD_CAT_ID   = 67564
ELEMENT_SET_NO = 999
REV_AT_EPOCH   = 561
BSTAR          = -.10276983E-2
MEAN_MOTION_DOT = -.151048E-2
MEAN_MOTION_DDOT = 0

CCSDS_OMM_VERS = 2.0
CREATION_DATE  = 
ORIGINATOR     = 

OBJECT_NAME    = STARLINK-35725
OBJECT_ID      = 2026-016E
CENTER_NAME    = EARTH
REF_FRAME      = TEME
TIME_SYSTEM    = UTC
MEAN_ELEMENT_THEORY = SGP/SGP4

EPOCH          = 2026-02-22T21:53:51.191520
MEAN_MOTION    = 15.75309417
ECCENTRICITY   = .00014654
INCLINATION    = 97.2847
RA_OF_ASC_NODE = 113.6173
ARG_OF_PERICENTER = 67.7050
MEAN_ANOMALY   = 292.4371

EPHEMERIS_TYPE = 0
CLASSIFICATION_TYPE = U
NORAD_CAT_ID   = 67565
ELEMENT_SET_NO = 999
REV_AT_EPOCH   = 447
BSTAR          = .19800812E-2
MEAN_MOTION_DOT = .307691E-2
MEAN_MOTION_DDOT = 0

CCSDS_OMM_VERS = 2.0
CREATION_DATE  = 
ORIGINATOR     = 

OBJECT_NAME    = STARLINK-36394
OBJECT_ID      = 2026-016F
CENTER_NAME    = EARTH
REF_FRAME      = TEME
TIME_SYSTEM    = UTC
MEAN_ELEMENT_THEORY = SGP/SGP4

EPOCH          = 2026-02-22T21:56:24.422784
MEAN_MOTION    = 15.75287869
ECCENTRICITY   = .00030879
INCLINATION    = 97.2863
RA_OF_ASC_NODE = 113.6125
ARG_OF_PERICENTER = 60.8226
MEAN_ANOMALY   = 299.3348

EPHEMERIS_TYPE = 0
CLASSIFICATION_TYPE = U
NORAD_CAT_ID   = 67566
ELEMENT_SET_NO = 999
REV_AT_EPOCH   = 447
BSTAR          = .16855901E-2
MEAN_MOTION_DOT = .260222E-2
MEAN_MOTION_DDOT = 0

CCSDS_OMM_VERS = 2.0
CREATION_DATE  = 
ORIGINATOR     = 

OBJECT_NAME    = STARLINK-36352
OBJECT_ID      = 2026-016G
CENTER_NAME    = EARTH
REF_FRAME      = TEME
TIME_SYSTEM    = UTC
MEAN_ELEMENT_THEORY = SGP/SGP4

EPOCH          = 2026-02-22T22:00:01.999584
MEAN_MOTION    = 15.75225622
ECCENTRICITY   = .00005775
INCLINATION    = 97.2844
RA_OF_ASC_NODE = 113.7022
ARG_OF_PERICENTER = 76.2350
MEAN_ANOMALY   = 138.1692

EPHEMERIS_TYPE = 0
CLASSIFICATION_TYPE = U
NORAD_CAT_ID   = 67567
ELEMENT_SET_NO = 999
REV_AT_EPOCH   = 567
BSTAR          = -.7146193E-3
MEAN_MOTION_DOT = -.105568E-2
MEAN_MOTION_DDOT = 0

CCSDS_OMM_VERS = 2.0
CREATION_DATE  = 
ORIGINATOR     = 

OBJECT_NAME    = STARLINK-36435
OBJECT_ID      = 2026-016H
CENTER_NAME    = EARTH
REF_FRAME      = TEME
TIME_SYSTEM    = UTC
MEAN_ELEMENT_THEORY = SGP/SGP4

EPOCH          = 2026-02-22T14:50:09.880224
MEAN_MOTION    = 15.80747366
ECCENTRICITY   = .0004047
INCLINATION    = 97.2845
RA_OF_ASC_NODE = 113.4031
ARG_OF_PERICENTER = 339.2977
MEAN_ANOMALY   = 20.8126

EPHEMERIS_TYPE = 0
CLASSIFICATION_TYPE = U
NORAD_CAT_ID   = 67568
ELEMENT_SET_NO = 999
REV_AT_EPOCH   = 443
BSTAR          = .2616E-2
MEAN_MOTION_DOT = .531051E-2
MEAN_MOTION_DDOT = 0

CCSDS_OMM_VERS = 2.0
CREATION_DATE  = 
ORIGINATOR     = 

OBJECT_NAME    = STARLINK-36575
OBJECT_ID      = 2026-016J
CENTER_NAME    = EARTH
REF_FRAME      = TEME
TIME_SYSTEM    = UTC
MEAN_ELEMENT_THEORY = SGP/SGP4

EPOCH          = 2026-02-22T16:19:25.302144
MEAN_MOTION    = 15.80983492
ECCENTRICITY   = .00015301
INCLINATION    = 97.2840
RA_OF_ASC_NODE = 113.4751
ARG_OF_PERICENTER = 77.2386
MEAN_ANOMALY   = 282.9054

EPHEMERIS_TYPE = 0
CLASSIFICATION_TYPE = U
NORAD_CAT_ID   = 67569
ELEMENT_SET_NO = 999
REV_AT_EPOCH   = 444
BSTAR          = .123642E-2
MEAN_MOTION_DOT = .245342E-2
MEAN_MOTION_DDOT = 0

CCSDS_OMM_VERS = 2.0
CREATION_DATE  = 
ORIGINATOR     = 

OBJECT_NAME    = STARLINK-36562
OBJECT_ID      = 2026-016K
CENTER_NAME    = EARTH
REF_FRAME      = TEME
TIME_SYSTEM    = UTC
MEAN_ELEMENT_THEORY = SGP/SGP4

EPOCH          = 2026-02-22T22:00:01.999584
MEAN_MOTION    = 15.75144075
ECCENTRICITY   = .00013197
INCLINATION    = 97.2840
RA_OF_ASC_NODE = 113.7089
ARG_OF_PERICENTER = 83.3485
MEAN_ANOMALY   = 141.1014

EPHEMERIS_TYPE = 0
CLASSIFICATION_TYPE = U
NORAD_CAT_ID   = 67570
ELEMENT_SET_NO = 999
REV_AT_EPOCH   = 567
BSTAR          = .36866514E-4
MEAN_MOTION_DOT = .5362E-4
MEAN_MOTION_DDOT = 0

CCSDS_OMM_VERS = 2.0
CREATION_DATE  = 
ORIGINATOR     = 

OBJECT_NAME    = STARLINK-36578
OBJECT_ID      = 2026-016L
CENTER_NAME    = EARTH
REF_FRAME      = TEME
TIME_SYSTEM    = UTC
MEAN_ELEMENT_THEORY = SGP/SGP4

EPOCH          = 2026-02-22T21:59:27.270240
MEAN_MOTION    = 15.75285923
ECCENTRICITY   = .00030096
INCLINATION    = 97.2857
RA_OF_ASC_NODE = 113.6109
ARG_OF_PERICENTER = 75.1962
MEAN_ANOMALY   = 284.9636

EPHEMERIS_TYPE = 0
CLASSIFICATION_TYPE = U
NORAD_CAT_ID   = 67571
ELEMENT_SET_NO = 999
REV_AT_EPOCH   = 447
BSTAR          = .17052891E-2
MEAN_MOTION_DOT = .263337E-2
MEAN_MOTION_DDOT = 0

CCSDS_OMM_VERS = 2.0
CREATION_DATE  = 
ORIGINATOR     = 

OBJECT_NAME    = STARLINK-36350
OBJECT_ID      = 2026-016M
CENTER_NAME    = EARTH
REF_FRAME      = TEME
TIME_SYSTEM    = UTC
MEAN_ELEMENT_THEORY = SGP/SGP4

EPOCH          = 2026-02-22T21:48:16.769088
MEAN_MOTION    = 15.75200204
ECCENTRICITY   = .00017986
INCLINATION    = 97.2857
RA_OF_ASC_NODE = 113.6197
ARG_OF_PERICENTER = 74.6888
MEAN_ANOMALY   = 285.4576

EPHEMERIS_TYPE = 0
CLASSIFICATION_TYPE = U
NORAD_CAT_ID   = 67572
ELEMENT_SET_NO = 999
REV_AT_EPOCH   = 447
BSTAR          = .76562964E-3
MEAN_MOTION_DOT = .115682E-2
MEAN_MOTION_DDOT = 0

